     2.100          NAVIGATION                              RINEX VERSION / TYPE
fic2rin                                 08/02/2010 00:11:35 PGM / RUN BY / DATE
                                                            END OF HEADER
 2 10  8  1 20  0  0.0  .277524814010D-03  .295585778076D-11  .000000000000D+00
     .730000000000D+02  .533125000000D+02  .493663420206D-08  .704292394891D+00
     .275485217571D-05  .963951519225D-02  .944174826145D-05  .515361858368D+04
     .720000000000D+05  .208616256714D-06 -.189949170093D+01  .134110450745D-06
     .939437412848D+00  .184250000000D+03  .311404363717D+01 -.824427197845D-08
    -.138220043134D-09  .100000000000D+01  .159500000000D+04  .000000000000D+00
     .240000000000D+01  .000000000000D+00 -.172294676304D-07  .730000000000D+02
     .648060000000D+05  .400000000000D+01
 3 10  8  1 20  0  0.0  .589449424297D-03  .511590769747D-11  .000000000000D+00
     .990000000000D+02 -.416250000000D+02  .564666377764D-08  .596273663340D+00
    -.186078250408D-05  .134267656831D-01  .728480517864D-05  .515372046661D+04
     .720000000000D+05 -.108033418655D-06 -.305270215524D+01  .912696123123D-07
     .927825797566D+00  .223125000000D+03  .101676139183D+01 -.877072247865D-08
    -.354657630057D-09  .100000000000D+01  .159500000000D+04  .000000000000D+00
     .485000000000D+01  .000000000000D+00 -.465661287308D-08  .990000000000D+02
     .648060000000D+05  .400000000000D+01
 4 10  8  1 20  0  0.0  .137414317578D-03  .807176547823D-11  .000000000000D+00
     .115000000000D+03  .525312500000D+02  .483412993234D-08 -.251158466110D+01
     .264868140221D-05  .914051721338D-02  .974349677563D-05  .515372959709D+04
     .720000000000D+05  .465661287308D-07 -.188170916511D+01 -.108033418655D-06
     .938560310073D+00  .179687500000D+03  .622316725555D+00 -.803069165340D-08
    -.428589281035D-11  .100000000000D+01  .159500000000D+04  .000000000000D+00
     .240000000000D+01  .000000000000D+00 -.605359673500D-08  .115000000000D+03
     .648060000000D+05  .400000000000D+01
 5 10  8  1 20  0  0.0 -.196024775505D-04 -.375166564481D-11  .000000000000D+00
     .820000000000D+02  .566875000000D+02  .473091134716D-08  .236360888525D+01
     .290013849735D-05  .182778842282D-02  .459328293800D-05  .515375312996D+04
     .720000000000D+05  .353902578354D-07 -.838966974319D+00 -.428408384323D-07
     .957398152573D+00  .290781250000D+03  .198541447100D+00 -.831606068302D-08
     .100004165575D-10  .100000000000D+01  .159500000000D+04  .000000000000D+00
     .340000000000D+01  .000000000000D+00 -.884756445885D-08  .820000000000D+02
     .648060000000D+05  .400000000000D+01
 6 10  8  1 20  0  0.0  .550445169210D-03 -.145519152284D-10  .000000000000D+00
     .260000000000D+02 -.448125000000D+02  .533807949529D-08  .280240052332D+01
    -.209733843803D-05  .626029050909D-02  .750273466110D-05  .515365711594D+04
     .720000000000D+05  .145286321640D-06 -.298157678692D+01  .121071934700D-06
     .935113931089D+00  .218875000000D+03 -.998043331597D+00 -.834106172442D-08
    -.277511559470D-09  .100000000000D+01  .159500000000D+04  .000000000000D+00
     .240000000000D+01  .000000000000D+00 -.512227416039D-08  .260000000000D+02
     .648060000000D+05  .400000000000D+01
 7 10  8  1 20  0  0.0 -.188592821360D-05 -.113686837722D-12  .000000000000D+00
     .850000000000D+02 -.231250000000D+01  .421910431406D-08 -.903771209676D+00
    -.281259417534D-06  .386176037136D-02  .844709575176D-05  .515370097351D+04
     .720000000000D+05  .242143869400D-07  .126213899656D+01 -.614672899246D-07
     .972072625310D+00  .220187500000D+03  .304529220160D+01 -.789747181854D-08
     .322156276245D-09  .100000000000D+01  .159500000000D+04  .000000000000D+00
     .240000000000D+01  .000000000000D+00 -.102445483208D-07  .850000000000D+02
     .648060000000D+05  .400000000000D+01
 8 10  8  1 20  0  0.0  .629760324955D-05  .113686837722D-12  .000000000000D+00
     .440000000000D+02 -.718750000000D+01  .372944106048D-08 -.153354632316D+01
    -.774860382080D-06  .113047430059D-01  .907666981220D-05  .515367518234D+04
     .720000000000D+05 -.149011611938D-07  .133144074534D+01 -.137835741043D-06
     .993470476433D+00  .222281250000D+03  .311202478682D+01 -.764281835406D-08
     .481448625696D-09  .100000000000D+01  .159500000000D+04  .000000000000D+00
     .340000000000D+01  .000000000000D+00 -.372529029846D-08  .440000000000D+02
     .648060000000D+05  .400000000000D+01
 9 10  8  1 20  0  0.0  .217868946493D-04  .227373675443D-11  .000000000000D+00
     .310000000000D+02 -.127187500000D+02  .396087927223D-08 -.166551410769D+01
    -.244006514549D-06  .171630537370D-01  .913254916668D-05  .515371029282D+04
     .720000000000D+05  .171363353729D-06  .123142629984D+01  .383704900742D-06
     .981150254355D+00  .212187500000D+03  .153964214626D+01 -.769567769872D-08
     .293226499775D-09  .100000000000D+01  .159500000000D+04  .000000000000D+00
     .340000000000D+01  .000000000000D+00 -.558793544769D-08  .310000000000D+02
     .648060000000D+05  .400000000000D+01
10 10  8  1 20  0  0.0 -.485428608954D-04 -.102318153949D-11  .000000000000D+00
     .520000000000D+02  .516562500000D+02  .476055543910D-08  .244397179127D+01
     .259280204773D-05  .921078876127D-02  .436976552010D-05  .515353678703D+04
     .720000000000D+05 -.447034835815D-07 -.813575475336D+00 -.182539224625D-06
     .952423533292D+00  .292125000000D+03  .664955267976D+00 -.829355974577D-08
     .542879755978D-10  .100000000000D+01  .159500000000D+04  .000000000000D+00
     .340000000000D+01  .000000000000D+00 -.279396772385D-08  .520000000000D+02
     .648060000000D+05  .400000000000D+01
11 10  8  1 20  0  0.0 -.796089880168D-04 -.261479726760D-11  .000000000000D+00
     .900000000000D+02  .235000000000D+02  .607703884735D-08 -.104661769777D+01
     .118464231491D-05  .108829668025D-01  .898167490959D-05  .515375928116D+04
     .720000000000D+05  .249594449997D-06 -.212151623819D+01  .225380063057D-06
     .888171741152D+00  .167406250000D+03  .822878206512D+00 -.875000733007D-08
    -.236795577772D-09  .100000000000D+01  .159500000000D+04  .000000000000D+00
     .340000000000D+01  .000000000000D+00 -.116415321827D-07  .900000000000D+02
     .648060000000D+05  .400000000000D+01
12 10  8  1 20  0  0.0 -.875005498528D-04  .386535248253D-11  .000000000000D+00
     .110000000000D+03 -.187187500000D+02  .470126725522D-08 -.989333447972D+00
    -.927597284317D-06  .341284833848D-02  .580772757530D-05  .515363809013D+04
     .720000000000D+05  .596046447754D-07  .231653654827D+01 -.353902578354D-07
     .971597526571D+00  .274343750000D+03 -.356949158651D+00 -.816569727693D-08
     .294655130712D-09  .100000000000D+01  .159500000000D+04  .000000000000D+00
     .340000000000D+01  .000000000000D+00 -.116415321827D-07  .110000000000D+03
     .648060000000D+05  .400000000000D+01
13 10  8  1 20  0  0.0  .300617888570D-03 -.682121026330D-12  .000000000000D+00
     .830000000000D+02 -.351250000000D+02  .366336687965D-08  .149300703161D+01
    -.183843076229D-05  .444216211326D-02  .680796802044D-05  .515372603798D+04
     .720000000000D+05  .391155481339D-07  .282170459635D+00 -.968575477600D-07
     .992670962444D+00  .263812500000D+03  .178431076677D+01 -.773603652269D-08
    -.907180644858D-10  .100000000000D+01  .159500000000D+04  .000000000000D+00
     .240000000000D+01  .000000000000D+00 -.107102096081D-07  .830000000000D+02
     .648060000000D+05  .400000000000D+01
14 10  8  1 20  0  0.0  .740392133594D-04  .397903932026D-11  .000000000000D+00
     .750000000000D+02 -.318750000000D+02  .387873299337D-08  .141367949562D+01
    -.164844095707D-05  .534656818490D-02  .628456473351D-05  .515376787567D+04
     .720000000000D+05 -.726431608200D-07  .259959657620D+00 -.186264514923D-07
     .985892126296D+00  .268218750000D+03 -.214546747385D+01 -.792854454142D-08
    -.143934566881D-09  .100000000000D+01  .159500000000D+04  .000000000000D+00
     .240000000000D+01  .000000000000D+00 -.884756445885D-08  .750000000000D+02
     .648060000000D+05  .400000000000D+01
15 10  8  1 20  0  0.0 -.230421312153D-03  .591171556152D-11  .000000000000D+00
     .200000000000D+02 -.413125000000D+02  .463019286612D-08  .129567922135D+01
    -.214017927647D-05  .256584957242D-02  .593066215515D-05  .515379269218D+04
     .720000000000D+05  .204890966415D-07  .193821201477D+00  .800937414169D-07
     .953404866054D+00  .261406250000D+03 -.189495390752D+00 -.824891502899D-08
    -.188936441390D-09  .100000000000D+01  .159500000000D+04  .000000000000D+00
     .240000000000D+01  .000000000000D+00 -.977888703346D-08  .200000000000D+02
     .648060000000D+05  .400000000000D+01
16 10  8  1 20  0  0.0 -.952277332544D-04 -.352429196937D-11  .000000000000D+00
     .730000000000D+02 -.159687500000D+02  .457590489052D-08  .296486651153D+01
    -.724568963051D-06  .586853269488D-02  .597350299358D-05  .515362559128D+04
     .720000000000D+05 -.158324837685D-06  .233404555645D+01  .260770320892D-07
     .972790643058D+00  .271875000000D+03 -.178428362818D+00 -.796818904991D-08
     .242867259253D-09  .100000000000D+01  .159500000000D+04  .000000000000D+00
     .240000000000D+01  .000000000000D+00 -.102445483208D-07  .730000000000D+02
     .648060000000D+05  .400000000000D+01
17 10  8  1 20  0  0.0  .164665747434D-03  .170530256582D-11  .000000000000D+00
     .360000000000D+02 -.393750000000D+02  .463840749400D-08  .190916693786D+01
    -.207126140594D-05  .552178022917D-02  .859983265400D-05  .515363881874D+04
     .720000000000D+05 -.167638063431D-06 -.290638515440D+01  .391155481339D-07
     .960711537675D+00  .216562500000D+03 -.250246747183D+01 -.800390482333D-08
    -.322513433979D-09  .100000000000D+01  .159500000000D+04  .000000000000D+00
     .240000000000D+01  .000000000000D+00 -.102445483208D-07  .360000000000D+02
     .648060000000D+05  .400000000000D+01
